PROBA-V                 
1 39159U 13021A   23025.05816168  .00000090  00000+0  57905-4 0  9999
2 39159  98.3346  54.5009 0004685 149.6678 210.4773 14.23074302504840
PROBA-V                 
1 39159U 13021A   23025.55033583  .00000079  00000+0  53129-4 0  9997
2 39159  98.3346  54.9669 0004717 148.4106 211.7357 14.23074390504912
PROBA-V                 
1 39159U 13021A   23025.69095699  .00000078  00000+0  52552-4 0  9996
2 39159  98.3346  55.1000 0004712 148.1270 212.0195 14.23074407504933
PROBA-V                 
1 39159U 13021A   23026.04250994  .00000075  00000+0  51363-4 0  9993
2 39159  98.3346  55.4329 0004734 147.2809 212.8664 14.23074479504985
PROBA-V                 
1 39159U 13021A   23026.60499461  .00000065  00000+0  46888-4 0  9994
2 39159  98.3345  55.9655 0004758 145.8596 214.2890 14.23074552505063
PROBA-V                 
1 39159U 13021A   23026.95654751  .00000061  00000+0  45036-4 0  9997
2 39159  98.3345  56.2983 0004775 144.9814 215.1680 14.23074594505112
PROBA-V                 
1 39159U 13021A   23027.09716864  .00000062  00000+0  45678-4 0  9990
2 39159  98.3345  56.4315 0004778 144.6469 215.5028 14.23074648505131
PROBA-V                 
1 39159U 13021A   23027.58934269  .00000056  00000+0  42821-4 0  9995
2 39159  98.3345  56.8974 0004800 143.3594 216.7914 14.23074714505206
PROBA-V                 
1 39159U 13021A   23027.80027440  .00000056  00000+0  42746-4 0  9990
2 39159  98.3345  57.0971 0004816 142.8351 217.3162 14.23074740505232
PROBA-V                 
1 39159U 13021A   23028.08151670  .00000054  00000+0  41894-4 0  9995
2 39159  98.3344  57.3634 0004836 142.0895 218.0626 14.23074801505272
PROBA-V                 
1 39159U 13021A   23028.57369066  .00000048  00000+0  39375-4 0  9993
2 39159  98.3344  57.8294 0004873 140.8369 219.3164 14.23074888505346
PROBA-V                 
1 39159U 13021A   23028.64400122  .00000048  00000+0  39332-4 0  9993
2 39159  98.3344  57.8960 0004874 140.6596 219.4938 14.23074897505358
PROBA-V                 
1 39159U 13021A   23029.06586460  .00000043  00000+0  36947-4 0  9994
2 39159  98.3343  58.2954 0004897 139.6391 220.5152 14.23074951505410
PROBA-V                 
1 39159U 13021A   23029.48772792  .00000040  00000+0  35792-4 0  9999
2 39159  98.3343  58.6948 0004921 138.5993 221.5560 14.23075030505470
PROBA-V                 
1 39159U 13021A   23029.69865959  .00000038  00000+0  34736-4 0  9994
2 39159  98.3343  58.8945 0004928 138.0690 222.0867 14.23075045505501
PROBA-V                 
1 39159U 13021A   23029.83928072  .00000033  00000+0  32819-4 0  9991
2 39159  98.3343  59.0278 0004938 137.7788 222.3773 14.23075025505527
PROBA-V                 
1 39159U 13021A   23030.05021237  .00000032  00000+0  32190-4 0  9995
2 39159  98.3343  59.2275 0004945 137.2643 222.8921 14.23075068505559
PROBA-V                 
1 39159U 13021A   23030.96424950  .00000031  00000+0  32028-4 0  9993
2 39159  98.3342  60.0929 0004992 135.0576 225.1008 14.23075190505689
PROBA-V                 
1 39159U 13021A   23031.03456001  .00000032  00000+0  32342-4 0  9994
2 39159  98.3342  60.1595 0004986 134.9028 225.2556 14.23075213505698
PROBA-V                 
1 39159U 13021A   23031.52673382  .00000038  00000+0  35082-4 0  9991
2 39159  98.3341  60.6254 0005009 133.6932 226.4663 14.23075316505765
PROBA-V                 
1 39159U 13021A   23031.80797596  .00000043  00000+0  36968-4 0  9996
2 39159  98.3341  60.8917 0005018 132.9803 227.1798 14.23075365505808
PROBA-V                 
1 39159U 13021A   23032.51108132  .00000045  00000+0  37906-4 0  9992
2 39159  98.3341  61.5574 0005051 131.2065 228.9550 14.23075504505905
PROBA-V                 
1 39159U 13021A   23032.79232339  .00000047  00000+0  38959-4 0  9990
2 39159  98.3340  61.8238 0005045 130.5237 229.6383 14.23075549505945
PROBA-V                 
1 39159U 13021A   23033.07356544  .00000050  00000+0  40025-4 0  9998
2 39159  98.3340  62.0901 0005047 129.8900 230.2724 14.23075639505986
PROBA-V                 
1 39159U 13021A   23033.49542852  .00000056  00000+0  43098-4 0  9992
2 39159  98.3340  62.4895 0005065 128.8814 231.2818 14.23075776506040
PROBA-V                 
1 39159U 13021A   23034.05791265  .00000048  00000+0  39120-4 0  9991
2 39159  98.3338  63.0220 0005083 127.5605 232.6036 14.23075827506123
PROBA-V                 
1 39159U 13021A   23034.55008616  .00000053  00000+0  41602-4 0  9991
2 39159  98.3338  63.4880 0005101 126.4035 233.7615 14.23075967506192
PROBA-V                 
1 39159U 13021A   23035.04225967  .00000055  00000+0  42588-4 0  9992
2 39159  98.3338  63.9539 0005118 125.2288 234.9371 14.23076065506263
PROBA-V                 
1 39159U 13021A   23035.53443314  .00000054  00000+0  41961-4 0  9997
2 39159  98.3337  64.4199 0005135 124.0665 236.1002 14.23076149506331
PROBA-V                 
1 39159U 13021A   23035.81567510  .00000055  00000+0  42279-4 0  9997
2 39159  98.3337  64.6862 0005141 123.4212 236.7460 14.23076180506371
PROBA-V                 
1 39159U 13021A   23036.09691708  .00000049  00000+0  39876-4 0  9997
2 39159  98.3336  64.9524 0005149 122.7817 237.3859 14.23076209506415
PROBA-V                 
1 39159U 13021A   23036.58909047  .00000055  00000+0  42331-4 0  9996
2 39159  98.3336  65.4184 0005159 121.5845 238.5839 14.23076332506487
PROBA-V                 
1 39159U 13021A   23036.80002194  .00000055  00000+0  42337-4 0  9994
2 39159  98.3336  65.6181 0005169 121.0712 239.0975 14.23076354506510
PROBA-V                 
1 39159U 13021A   23036.94064288  .00000054  00000+0  41824-4 0  9990
2 39159  98.3335  65.7512 0005171 120.7548 239.4141 14.23076386506530
PROBA-V                 
1 39159U 13021A   23037.08126385  .00000052  00000+0  41282-4 0  9999
2 39159  98.3335  65.8843 0005174 120.4037 239.7654 14.23076416506559
PROBA-V                 
1 39159U 13021A   23037.57343712  .00000069  00000+0  48739-4 0  9990
2 39159  98.3335  66.3503 0005199 119.2548 240.9151 14.23076635506625
PROBA-V                 
1 39159U 13021A   23037.92498943  .00000070  00000+0  49064-4 0  9990
2 39159  98.3336  66.6833 0005203 118.4494 241.7210 14.23076705506670
PROBA-V                 
1 39159U 13021A   23038.06561033  .00000070  00000+0  49195-4 0  9992
2 39159  98.3336  66.8164 0005203 118.1266 242.0440 14.23076759506693
PROBA-V                 
1 39159U 13021A   23038.55778348  .00000077  00000+0  52269-4 0  9998
2 39159  98.3336  67.2823 0005216 116.9963 243.1749 14.23076932506769
PROBA-V                 
1 39159U 13021A   23038.62809393  .00000075  00000+0  51491-4 0  9995
2 39159  98.3336  67.3489 0005219 116.8228 243.3486 14.23076935506778
PROBA-V                 
1 39159U 13021A   23038.97964618  .00000079  00000+0  53218-4 0  9998
2 39159  98.3336  67.6817 0005228 116.0532 244.1186 14.23077030506825
PROBA-V                 
1 39159U 13021A   23039.54212967  .00000090  00000+0  57947-4 0  9991
2 39159  98.3336  68.2143 0005242 114.7304 245.4421 14.23077240506900
PROBA-V                 
1 39159U 13021A   23039.61244011  .00000089  00000+0  57573-4 0  9997
2 39159  98.3336  68.2808 0005242 114.5479 245.6247 14.23077249506917
PROBA-V                 
1 39159U 13021A   23039.68275054  .00000089  00000+0  57398-4 0  9990
2 39159  98.3336  68.3474 0005242 114.3770 245.7957 14.23077256506927
PROBA-V                 
1 39159U 13021A   23039.82337137  .00000102  00000+0  63336-4 0  9992
2 39159  98.3336  68.4805 0005241 114.0616 246.1112 14.23077359506945
PROBA-V                 
1 39159U 13021A   23040.03430266  .00000102  00000+0  63438-4 0  9997
2 39159  98.3336  68.6802 0005246 113.5788 246.5943 14.23077424506975
PROBA-V                 
1 39159U 13021A   23040.31554436  .00000104  00000+0  64188-4 0  9999
2 39159  98.3336  68.9465 0005269 112.9296 247.2440 14.23077502507018
PROBA-V                 
1 39159U 13021A   23040.80771732  .00000115  00000+0  69049-4 0  9996
2 39159  98.3336  69.4124 0005285 111.7976 248.3766 14.23077673507085
PROBA-V                 
1 39159U 13021A   23041.01864873  .00000107  00000+0  65483-4 0  9998
2 39159  98.3335  69.6121 0005305 111.1936 248.9811 14.23077664507117
PROBA-V                 
1 39159U 13021A   23041.51082164  .00000110  00000+0  67029-4 0  9990
2 39159  98.3335  70.0781 0005320 110.0579 250.1173 14.23077815507184
PROBA-V                 
1 39159U 13021A   23041.79206320  .00000119  00000+0  70883-4 0  9993
2 39159  98.3336  70.3445 0005327 109.3919 250.7837 14.23077935507222
PROBA-V                 
1 39159U 13021A   23041.86237359  .00000122  00000+0  72081-4 0  9993
2 39159  98.3336  70.4110 0005327 109.2214 250.9542 14.23077973507237
PROBA-V                 
1 39159U 13021A   23042.00299435  .00000121  00000+0  71794-4 0  9992
2 39159  98.3336  70.5442 0005329 108.9225 251.2532 14.23078032507258
PROBA-V                 
1 39159U 13021A   23042.07330460  .00000128  00000+0  74670-4 0  9996
2 39159  98.3336  70.6107 0005318 108.8407 251.3349 14.23078124507266
PROBA-V                 
1 39159U 13021A   23042.84671884  .00000131  00000+0  76264-4 0  9994
2 39159  98.3336  71.3430 0005335 107.0882 253.0882 14.23078372507378
PROBA-V                 
1 39159U 13021A   23043.33889145  .00000135  00000+0  77806-4 0  9997
2 39159  98.3336  71.8089 0005343 105.9176 254.2592 14.23078561507444
PROBA-V                 
1 39159U 13021A   23043.83106387  .00000152  00000+0  85386-4 0  9993
2 39159  98.3335  72.2749 0005359 104.7596 255.4178 14.23078854507517
PROBA-V                 
1 39159U 13021A   23044.32323631  .00000157  00000+0  87599-4 0  9994
2 39159  98.3335  72.7408 0005361 103.6065 256.5711 14.23079048507584
PROBA-V                 
1 39159U 13021A   23044.81540868  .00000161  00000+0  89435-4 0  9997
2 39159  98.3333  73.2068 0005362 102.4728 257.7052 14.23079226507651
